#dP2022  5  1 18  0  0.00000000      96 __u+U ITR00 EXT  IAC
## 2208  64800.00000000   900.00000000 59700 0.7500000000000
+  117   C06C07C08C09C10C11C12C13C14C16C19C20C21C22C23C24C25
+        C26C27C28C29C30C32C33C34C35C36C37C38C39C40C41C42C43
+        C44C45C46E01E02E03E04E05E07E08E09E10E11E12E13E14E15
+        E18E19E21E24E25E26E27E30E31E33E34E36G01G02G03G04G05
+        G06G07G08G09G10G11G12G13G14G15G16G17G18G19G20G21G22
+        G23G24G25G26G27G28G29G30G31G32J02J03R01R02R03R04R05
+        R07R08R09R11R12R13R14R15R17R18R19R20R21R22R24  0  0
++        11  8  8  9  9  8  9  9  8 10  7  7  7  7  9  8  8
++         9  9  9  6 10  8  9 10  8  8  8  8  9 10 11  9  8
++        10  9  9  6  8  7  8  7  7  8  8  6  7  7  7  8  9
++         6  9  7  8  8  7  8  8  8  7  9  7  8  7  8  8  8
++         8  8  7  8  8  9  7  9  7  9  8  7  9  8  8  7  8
++         8  7  7  8  8  9  7  8  7  9  8 10  8  9  8  9  0
++         0  8  9  8  9 10  9  9  9 10  9  8  8  9  9  0  0
%c M  cc GPS ccc cccc cccc cccc cccc ccccc ccccc ccccc ccccc
%c cc cc ccc ccc cccc cccc cccc cccc ccccc ccccc ccccc ccccc
%f  0.0000000  0.000000000  0.00000000000  0.000000000000000
%f  0.0000000  0.000000000  0.00000000000  0.000000000000000
%i    0    0    0    0      0      0      0      0         0
%i    0    0    0    0      0      0      0      0         0
/* IAC                                ULTRA-RAPID PREDICTION
/* S/V CLOCKS ARE ALIGNED TO GNSS TIME                      
/* G:C1WC2W R:C1PC2P E:C1XC5X C:C2IC6I J:C1CC2S             
/* PCV:IGS14_2196 OL/AL:FES2004  NONE     YN ORB:CoN CLK:CoN
*  2022 05 02 15 30  0.00000000
PC06  -5562.561556  39618.423680  13677.723081    -94.034595
PC07  -8772.540947  25491.197279 -32428.856868   -114.924596
PC08 -20465.600413  30793.030304  20149.918765    291.588760
PC09   -694.780354  42184.472850   4891.513686   -750.408745
PC10    298.216258  27470.551919 -31669.008196    134.061722
PC11  15596.046789   1953.417763  23114.257326    327.724974
PC12  12517.849284  20548.012540  14158.692109   -621.730933
PC13 -11809.661406  30909.705535  26096.772610    -44.187345
PC14  26390.956465   3750.894105  -8124.929541    466.757894
PC16  -7073.685109  38328.909844  16581.674499    126.822564
PC19 -22503.678346   3542.244124  16166.313704    873.382304
PC20 -26332.563578  -9277.268459    619.537407   -899.235899
PC21  14455.225818  17382.139562  16364.864234   -218.069776
PC22  -5543.641300  14823.351756  22991.636386   -973.735162
PC23  14335.552600 -21507.449280  10523.605920   -930.473745
PC24  18727.978706   3586.862783 -20392.734343   -959.441536
PC25  23253.429518 -14130.808722  -6247.482678   -742.487645
PC26   4560.958795  16730.599605 -21869.045846    743.507732
PC27  -8275.045036 -25926.748598  -6151.481176    716.972828
PC28   3823.632845 -25354.095242  11012.953959     62.105645
PC29 -13712.525209  10044.382617 -22143.060766    549.258036
PC30 -16090.117316 -11687.365749 -19576.756197    497.879901
PC32 -14610.317943 -17266.946874 -16333.221656   -962.648049
PC33  22512.161145  -3619.321453 -16062.576042   -965.963872
PC34  16232.730552  10693.577414  20017.477357   -412.495825
PC35  -3621.489709  25042.518585 -11822.056634    255.674892
PC36 -23650.816773  13194.102353   6750.138023   -963.823664
PC37  -2980.012389 -17514.155093  21537.967748   -916.239505
PC38 -24889.614580  31466.835282  12771.492671    229.302930
PC39  -9001.898297  34896.812761  22057.257802     34.965310
PC40 -13100.840191  18993.246992 -35324.830912    265.732127
PC41   5973.953305 -14672.552776 -22916.352431   -965.881721
PC42  26064.010372   9924.965930    481.309124   -961.186635
PC43  14110.555050  -9229.399345  22219.716478   -926.480116
PC44   9078.065608  25742.300211   5880.419134    646.707209
PC45 -14128.263794  21492.357435 -10802.203990    746.606235
PC46 -19535.207287  -2172.801074  19797.294796   -303.196348
PE01 -13365.973272  16521.338834 -20605.125578   -604.813517
PE02  13214.316036 -16548.347553  20682.194971    296.598059
PE03   2005.601638 -20705.984262 -21057.136746   -554.116083
PE04  14626.054522  24822.187838   6799.261233  -1019.251230
PE05  17817.882107  -4314.552383 -23229.406572   -185.367846
PE07 -23032.703558 -14324.884742  11877.488036   -664.492793
PE08 -14974.048546 -24692.028475  -6523.867768   -522.271974
PE09  23019.103050  14178.485110 -12024.636929   -504.461566
PE10   9616.135470  16547.057374  22572.162764   -510.427832
PE11  15043.081891   5794.736395  24813.665831   3789.324251
PE12   2961.890431  24189.530204  16814.155203   4633.709845
PE13 -14715.309202  -6470.650049 -24854.065225    428.417943
PE14 -16644.377847 -25235.374064  -2308.348238  -1834.772622
PE15  -2884.796838 -24230.426899 -16744.785698    748.111248
PE18   6111.047272  24583.087925  -7831.963624  -1495.905927
PE19  -4188.720968  19124.151529  22213.963272  -3995.040753
PE21 -27397.293327   9222.415253  -6363.728999   -731.860489
PE24  25984.440206   4804.339146 -13377.255602   -593.026055
PE25  27511.868689  -9064.624274   6105.824500   -572.500422
PE26 -17854.203113  15777.615287 -17566.060141  -1098.183036
PE27 -26597.409957  -3867.906048  12391.781712   -289.601401
PE30  -8998.975301 -14994.613336  23868.336582   -478.071326
PE31  10163.278317  14558.653391 -23680.766483   -495.991351
PE33 -10592.538137  27622.928760  -1197.536045   -457.037576
PE34  10418.103096 -27688.521408    987.660231   -515.037357
PE36  17814.915182 -14934.741077  18314.213643   -367.970739
PG01  13899.799723 -22135.904244   3169.880438    371.821213
PG02 -16715.508438   5715.254935 -19228.433942   -653.274028
PG03  15568.357870 -12731.644910 -17395.069736   -229.473776
PG04   6522.286140 -16179.327175 -19992.550963   -170.904284
PG05 -25710.195175   5466.002927   4186.927141    -80.406357
PG06 -10296.036946 -11276.306113 -21658.253701    288.240948
PG07   2727.026277 -23628.329174  11680.233643    321.543831
PG08  13314.796565  -7316.193203  21759.827486    -66.349778
PG09  -3560.486960 -22480.450766 -13726.794037   -339.696550
PG10  14974.222018  11872.238913  18716.025632   -399.709049
PG11 -17756.018914   3827.778958 -19374.356527    -30.460926
PG12 -19553.900192  10057.400218 -15077.213263   -209.315941
PG13 -16757.401952  -2666.786023  20325.933928    304.464764
PG14 -13363.527655 -13152.390344  18840.832586   -106.230303
PG15 -12357.330023   9680.257186  21020.201166    -64.383529
PG16  26796.053782    903.127013    -18.377300   -497.275510
PG17 -13864.316414 -22552.523776  -1318.270801    607.710072
PG18  -4142.339487  23780.115707  10948.778378    180.631728
PG19 -16655.491121 -18740.195578  -9334.094300    152.071241
PG20 -25622.957098    746.324812  -6465.028289    515.555572
PG21  16811.117029 -15018.548958  14128.986731    160.870669
PG22  17547.699115  16703.324121 -10678.262098    252.682175
PG23   2899.498561  14828.077606  21838.928301    -19.169783
PG24 -14474.411920  20558.026664   7585.954701    247.857568
PG25  -5207.118262  15351.606019 -21282.937550    319.584293
PG26  23695.982623   5535.417851 -11092.923180    202.841058
PG27  18536.751878   5757.142160  18094.230788    195.700883
PG28 -20462.319797 -10241.724043  13798.396796    364.328074
PG29   1323.768793  22300.114215 -14370.546440   -509.417469
PG30  -4630.122971 -19198.730538  17724.462300   -526.293242
PG31  12693.096797   8807.029453 -21710.043425   -175.927113
PG32  16584.344495  20570.930045  -3413.835368   -118.118060
PJ02 -33834.371619  18675.784976 -12243.066960     -3.180629
PJ03 -20385.726249  29424.604967 -17685.105307     -1.890938
PR01  -7075.631682   8664.007459  22932.792668      8.332803
PR02  11845.301421  16057.989223  15975.830659    517.207667
PR03  21939.642125  13064.713426   -212.292507     55.947686
PR04  19532.854361   3046.921512 -16089.809153    139.578340
PR05      0.000000      0.000000      0.000000     92.177900
PR07      0.000000      0.000000      0.000000     34.589518
PR08 -19491.958712  -2729.789893  16274.808251    -64.872756
PR09     45.358083 -12673.827234  22140.477256     52.907020
PR11 -22716.480268   9247.084096   7044.224282     39.922866
PR12 -16623.682245  15601.973567 -11400.167395     18.241382
PR13  -1568.303464  13010.350350 -21901.132528    -21.726635
PR14  15796.112521   2112.818333 -19901.614061     77.166732
PR15  22880.642331  -9423.124220  -6170.343798     96.428567
PR17   8774.936019  13185.932290  19987.122194    522.580220
PR18  10373.126768  -4868.098092  22791.919180    115.518217
PR19   7554.841471 -19568.097079  14508.137094   -187.567394
PR20   -879.564561 -24917.083268  -5269.061901    -69.793118
PR21  -9001.287206 -11826.491511 -20741.888994   -298.024261
PR22 -10301.189583   5914.094769 -22606.974609   -180.621862
PR24   1931.657012  24734.818577   5922.930292     91.834979
EOF
